{
  "type": "FeatureCollection",
  "features": [
    {
      "type": "Feature",
      "properties": {
        "norad_id": 65731,
        "name": "1998-067XK",
        "group": "stations",
        "lat": -43.639129097802034,
        "lon": 18.096496811344945,
        "alt_km": 373.86237944668665,
        "timestamp": "2025-12-10T09:57:43.504643+00:00",
        "meta_object_name": "1998-067XK",
        "meta_object_id": "1998-067XK",
        "meta_epoch": "2025-12-09T11:28:42.048480",
        "meta_mean_motion": 15.6489001,
        "meta_eccentricity": 0.00052455,
        "meta_inclination": 51.6282,
        "meta_ra_of_asc_node": 153.7695,
        "meta_arg_of_pericenter": 225.0581,
        "meta_mean_anomaly": 134.9989,
        "meta_ephemeris_type": 0,
        "meta_classification_type": "U",
        "meta_norad_cat_id": 65731,
        "meta_element_set_no": 999,
        "meta_rev_at_epoch": 1263,
        "meta_bstar": 0.0011288356,
        "meta_mean_motion_dot": 0.00113689,
        "meta_mean_motion_ddot": 0,
        "tle_line1": "1 65731U 98067XK  25343.47826445  .00113689  00000+0  11288-2 0  9998",
        "tle_line2": "2 65731  51.6282 153.7695 0005245 225.0581 134.9989 15.64890010 12632"
      },
      "geometry": {
        "type": "Point",
        "coordinates": [
          18.096496811344945,
          -43.639129097802034
        ]
      }
    },
    {
      "type": "Feature",
      "properties": {
        "norad_id": 65732,
        "name": "RSP-03",
        "group": "stations",
        "lat": -8.41921917080956,
        "lon": -24.897523334740665,
        "alt_km": 363.9873065753245,
        "timestamp": "2025-12-10T09:57:43.504653+00:00",
        "meta_object_name": "RSP-03",
        "meta_object_id": "1998-067XL",
        "meta_epoch": "2025-12-09T20:54:46.609056",
        "meta_mean_motion": 15.6763654,
        "meta_eccentricity": 0.0006032,
        "meta_inclination": 51.6264,
        "meta_ra_of_asc_node": 151.1351,
        "meta_arg_of_pericenter": 231.1748,
        "meta_mean_anomaly": 128.871,
        "meta_ephemeris_type": 0,
        "meta_classification_type": "U",
        "meta_norad_cat_id": 65732,
        "meta_element_set_no": 999,
        "meta_rev_at_epoch": 1271,
        "meta_bstar": 0.0013517,
        "meta_mean_motion_dot": 0.00152975,
        "meta_mean_motion_ddot": 0,
        "tle_line1": "1 65732U 98067XL  25343.87137279  .00152975  00000+0  13517-2 0  9991",
        "tle_line2": "2 65732  51.6264 151.1351 0006032 231.1748 128.8710 15.67636540 12714"
      },
      "geometry": {
        "type": "Point",
        "coordinates": [
          -24.897523334740665,
          -8.41921917080956
        ]
      }
    },
    {
      "type": "Feature",
      "properties": {
        "norad_id": 65733,
        "name": "GHS-01",
        "group": "stations",
        "lat": 41.74308204556542,
        "lon": -167.86276479510556,
        "alt_km": 347.5185790238438,
        "timestamp": "2025-12-10T09:57:43.504664+00:00",
        "meta_object_name": "GHS-01",
        "meta_object_id": "1998-067XM",
        "meta_epoch": "2025-12-09T18:28:18.827040",
        "meta_mean_motion": 15.73188946,
        "meta_eccentricity": 0.0006938,
        "meta_inclination": 51.6282,
        "meta_ra_of_asc_node": 150.4557,
        "meta_arg_of_pericenter": 260.0742,
        "meta_mean_anomaly": 99.9474,
        "meta_ephemeris_type": 0,
        "meta_classification_type": "U",
        "meta_norad_cat_id": 65733,
        "meta_element_set_no": 999,
        "meta_rev_at_epoch": 1271,
        "meta_bstar": 0.0015642,
        "meta_mean_motion_dot": 0.00225395,
        "meta_mean_motion_ddot": 0,
        "tle_line1": "1 65733U 98067XM  25343.76966235  .00225395  00000+0  15642-2 0  9990",
        "tle_line2": "2 65733  51.6282 150.4557 0006938 260.0742  99.9474 15.73188946 12719"
      },
      "geometry": {
        "type": "Point",
        "coordinates": [
          -167.86276479510556,
          41.74308204556542
        ]
      }
    },
    {
      "type": "Feature",
      "properties": {
        "norad_id": 65941,
        "name": "YOTSUBA-KULOVER",
        "group": "stations",
        "lat": 39.66536924242365,
        "lon": -167.26933710162263,
        "alt_km": 386.26107532503556,
        "timestamp": "2025-12-10T09:57:43.504674+00:00",
        "meta_object_name": "YOTSUBA-KULOVER",
        "meta_object_id": "1998-067XN",
        "meta_epoch": "2025-12-09T12:11:24.743328",
        "meta_mean_motion": 15.58849812,
        "meta_eccentricity": 0.00016122,
        "meta_inclination": 51.6274,
        "meta_ra_of_asc_node": 156.2142,
        "meta_arg_of_pericenter": 216.6617,
        "meta_mean_anomaly": 143.4266,
        "meta_ephemeris_type": 0,
        "meta_classification_type": "U",
        "meta_norad_cat_id": 65941,
        "meta_element_set_no": 999,
        "meta_rev_at_epoch": 935,
        "meta_bstar": 0.0010220852,
        "meta_mean_motion_dot": 0.0008095,
        "meta_mean_motion_ddot": 0,
        "tle_line1": "1 65941U 98067XN  25343.50792527  .00080950  00000+0  10221-2 0  9998",
        "tle_line2": "2 65941  51.6274 156.2142 0001612 216.6617 143.4266 15.58849812  9356"
      },
      "geometry": {
        "type": "Point",
        "coordinates": [
          -167.26933710162263,
          39.66536924242365
        ]
      }
    },
    {
      "type": "Feature",
      "properties": {
        "norad_id": 65942,
        "name": "BOTAN",
        "group": "stations",
        "lat": -3.633050111441917,
        "lon": 148.1466840207944,
        "alt_km": 384.3307803196294,
        "timestamp": "2025-12-10T09:57:43.504684+00:00",
        "meta_object_name": "BOTAN",
        "meta_object_id": "1998-067XP",
        "meta_epoch": "2025-12-09T12:29:10.787136",
        "meta_mean_motion": 15.61959609,
        "meta_eccentricity": 0.00035005,
        "meta_inclination": 51.628,
        "meta_ra_of_asc_node": 155.5477,
        "meta_arg_of_pericenter": 212.819,
        "meta_mean_anomaly": 147.2587,
        "meta_ephemeris_type": 0,
        "meta_classification_type": "U",
        "meta_norad_cat_id": 65942,
        "meta_element_set_no": 999,
        "meta_rev_at_epoch": 936,
        "meta_bstar": 0.00138053,
        "meta_mean_motion_dot": 0.00124109,
        "meta_mean_motion_ddot": 0,
        "tle_line1": "1 65942U 98067XP  25343.52026374  .00124109  00000+0  13805-2 0  9997",
        "tle_line2": "2 65942  51.6280 155.5477 0003500 212.8190 147.2587 15.61959609  9368"
      },
      "geometry": {
        "type": "Point",
        "coordinates": [
          148.1466840207944,
          -3.633050111441917
        ]
      }
    },
    {
      "type": "Feature",
      "properties": {
        "norad_id": 65943,
        "name": "E-KAGAKU-1",
        "group": "stations",
        "lat": 39.312940451558546,
        "lon": -167.88747470355383,
        "alt_km": 386.9408524369028,
        "timestamp": "2025-12-10T09:57:43.504695+00:00",
        "meta_object_name": "E-KAGAKU-1",
        "meta_object_id": "1998-067XQ",
        "meta_epoch": "2025-12-08T17:43:35.861664",
        "meta_mean_motion": 15.58651727,
        "meta_eccentricity": 0.00029774,
        "meta_inclination": 51.6297,
        "meta_ra_of_asc_node": 160.0822,
        "meta_arg_of_pericenter": 178.8942,
        "meta_mean_anomaly": 181.2057,
        "meta_ephemeris_type": 0,
        "meta_classification_type": "U",
        "meta_norad_cat_id": 65943,
        "meta_element_set_no": 999,
        "meta_rev_at_epoch": 923,
        "meta_bstar": 0.00085624806,
        "meta_mean_motion_dot": 0.00067115,
        "meta_mean_motion_ddot": 0,
        "tle_line1": "1 65943U 98067XQ  25342.73860951  .00067115  00000+0  85625-3 0  9990",
        "tle_line2": "2 65943  51.6297 160.0822 0002977 178.8942 181.2057 15.58651727  9237"
      },
      "geometry": {
        "type": "Point",
        "coordinates": [
          -167.88747470355383,
          39.312940451558546
        ]
      }
    },
    {
      "type": "Feature",
      "properties": {
        "norad_id": 66052,
        "name": "HRC MONOBLOCK CAMERA",
        "group": "stations",
        "lat": 50.93663106158955,
        "lon": -129.42153315396334,
        "alt_km": 398.49013631669186,
        "timestamp": "2025-12-10T09:57:43.504707+00:00",
        "meta_object_name": "HRC MONOBLOCK CAMERA",
        "meta_object_id": "1998-067XR",
        "meta_epoch": "2025-12-10T01:53:33.064224",
        "meta_mean_motion": 15.53848796,
        "meta_eccentricity": 0.0003676,
        "meta_inclination": 51.6293,
        "meta_ra_of_asc_node": 154.772,
        "meta_arg_of_pericenter": 173.0963,
        "meta_mean_anomaly": 187.0078,
        "meta_ephemeris_type": 0,
        "meta_classification_type": "U",
        "meta_norad_cat_id": 66052,
        "meta_element_set_no": 999,
        "meta_rev_at_epoch": 842,
        "meta_bstar": 0.00070943,
        "meta_mean_motion_dot": 0.00046287,
        "meta_mean_motion_ddot": 0,
        "tle_line1": "1 66052U 98067XR  25344.07885491  .00046287  00000+0  70943-3 0  9991",
        "tle_line2": "2 66052  51.6293 154.7720 0003676 173.0963 187.0078 15.53848796  8425"
      },
      "geometry": {
        "type": "Point",
        "coordinates": [
          -129.42153315396334,
          50.93663106158955
        ]
      }
    }
  ]
}